NORAD_CAT_ID,OBJECT_NAME,OBJECT_TYPE,EPOCH,MEAN_MOTION,ECCENTRICITY,INCLINATION,RA_OF_ASC_NODE,ARG_OF_PERICENTER,MEAN_ANOMALY,BSTAR,MEAN_MOTION_DOT,MEAN_MOTION_DDOT,TLE_LINE0,TLE_LINE1,TLE_LINE2,SEMIMAJOR_AXIS,PERIOD,APOGEE,PERIGEE,DECAYED
55280.0,STARLINK-5331,PAYLOAD,2023-11-15 03:24:53,14.99134163,0.0003076,70.0006,16.277,272.9064,87.1744,-9.0121e-06,-2.04e-06,0.0,0 STARLINK-5331,1 55280U 23010M   23319.14228591 -.00000204  00000-0 -90121-5 0  9992,2 55280  70.0006  16.2770 0003076 272.9064  87.1744 14.99134163 45814,6947.707,96.055,571.709,567.435,0.0
55280.0,STARLINK-5331,PAYLOAD,2023-11-15 14:00:01,14.99125232,0.0003198,70.002,15.1641,274.5453,305.3068,0.00092181,0.00011152,0.0,0 STARLINK-5331,1 55280U 23010M   23319.58335648  .00011152  00000-0  92181-3 0  9990,2 55280  70.0020  15.1641 0003198 274.5453 305.3068 14.99125232  5794,6947.735,96.056,571.822,567.378,0.0
55280.0,STARLINK-5331,PAYLOAD,2023-11-15 22:00:00,14.9911157,0.000318,70.0017,14.3225,270.4749,307.7603,0.0018262,0.00022213,0.0,0 STARLINK-5331,1 55280U 23010M   23319.91667824  .00022213  00000-0  18262-2 0  9998,2 55280  70.0017  14.3225 0003180 270.4749 307.7603 14.99111570  5749,6947.777,96.057,571.851,567.433,0.0
55280.0,STARLINK-5331,PAYLOAD,2023-11-16 03:26:07,14.99137577,0.0002891,70.0012,13.7508,273.4576,86.6253,-5.4953e-05,-7.63e-06,0.0,0 STARLINK-5331,1 55280U 23010M   23320.14314630 -.00000763  00000-0 -54953-4 0  9996,2 55280  70.0012  13.7508 0002891 273.4576  86.6253 14.99137577 45967,6947.697,96.055,571.57,567.553,0.0
55280.0,STARLINK-5331,PAYLOAD,2023-11-16 13:02:37,14.99134055,0.0002764,70.001,12.7401,267.1135,92.9709,-7.664e-05,-1.027e-05,0.0,0 STARLINK-5331,1 55280U 23010M   23320.54349330 -.00001027  00000-0 -76640-4 0  9996,2 55280  70.0010  12.7401 0002764 267.1135  92.9709 14.99134055 46332,6947.708,96.055,571.493,567.652,0.0
55280.0,STARLINK-5331,PAYLOAD,2023-11-16 21:03:02,14.99140047,0.000303,70.0008,11.8973,273.1324,86.9489,-5.459e-05,-7.59e-06,0.0,0 STARLINK-5331,1 55280U 23010M   23320.87710896 -.00000759  00000-0 -54590-4 0  9992,2 55280  70.0008  11.8973 0003030 273.1324  86.9489 14.99140047 46388,6947.689,96.055,571.659,567.449,0.0
55280.0,STARLINK-5331,PAYLOAD,2023-11-17 03:27:22,14.99136973,0.0002905,70.0034,11.2247,271.3933,88.6894,8.1894e-06,6e-08,0.0,0 STARLINK-5331,1 55280U 23010M   23321.14400577  .00000006  00000-0  81894-5 0  9996,2 55280  70.0034  11.2247 0002905 271.3933  88.6894 14.99136973 46114,6947.699,96.055,571.582,567.545,0.0
55280.0,STARLINK-5331,PAYLOAD,2023-11-17 13:03:51,14.99144044,0.0002737,70.0008,10.2137,261.7712,98.3137,-8.0401e-05,-1.073e-05,0.0,0 STARLINK-5331,1 55280U 23010M   23321.54434676 -.00001073  00000-0 -80401-4 0  9996,2 55280  70.0008  10.2137 0002737 261.7712  98.3137 14.99144044 46489,6947.677,96.055,571.443,567.64,0.0
55280.0,STARLINK-5331,PAYLOAD,2023-11-18 11:29:01,14.99129826,0.0002678,70.0013,7.856,267.3781,92.7072,1.5422e-05,9.4e-07,0.0,0 STARLINK-5331,1 55280U 23010M   23322.47849085  .00000094  00000-0  15422-4 0  9994,2 55280  70.0013   7.8560 0002678 267.3781  92.7072 14.99129826 46318,6947.721,96.056,571.446,567.725,0.0
55280.0,STARLINK-5331,PAYLOAD,2023-11-18 21:05:30,14.99140976,0.0002906,70.0009,6.844,270.0908,89.9918,4.9044e-05,5.04e-06,0.0,0 STARLINK-5331,1 55280U 23010M   23322.87882646  .00000504  00000-0  49044-4 0  9991,2 55280  70.0009   6.8440 0002906 270.0908  89.9918 14.99140976 46681,6947.686,96.055,571.57,567.532,0.0
55280.0,STARLINK-5331,PAYLOAD,2023-11-19 03:29:50,14.99144477,0.0003066,70.0001,6.1701,271.0963,88.9846,3.9083e-05,3.83e-06,0.0,0 STARLINK-5331,1 55280U 23010M   23323.14571941  .00000383  00000-0  39083-4 0  9992,2 55280  70.0001   6.1701 0003066 271.0963  88.9846 14.99144477 46416,6947.675,96.055,571.67,567.41,0.0
55280.0,STARLINK-5331,PAYLOAD,2023-11-19 11:30:27,14.98994514,0.0002625,70.0007,5.3288,271.2123,88.8736,-0.0015398,-0.00018735,0.0,0 STARLINK-5331,1 55280U 23010M   23323.47947922 -.00018735  00000-0 -15398-2 0  9997,2 55280  70.0007   5.3288 0002625 271.2123  88.8736 14.98994514 46469,6948.139,96.064,571.828,568.18,0.0
55280.0,STARLINK-5331,PAYLOAD,2023-11-19 13:06:33,14.98984314,0.0002543,70.0008,5.1599,273.2593,86.8275,-0.0016237,-0.00019743,0.0,0 STARLINK-5331,1 55280U 23010M   23323.54621748 -.00019743  00000-0 -16237-2 0  9993,2 55280  70.0008   5.1599 0002543 273.2593  86.8275 14.98984314 46783,6948.17,96.065,571.802,568.268,0.0
55280.0,STARLINK-5331,PAYLOAD,2023-11-20 01:55:34,14.98792597,0.0002829,70.0014,3.8135,252.925,107.16,-0.0033031,-0.00039755,0.0,0 STARLINK-5331,1 55280U 23010M   23324.08026083 -.00039755  00000-0 -33031-2 0  9990,2 55280  70.0014   3.8135 0002829 252.9250 107.1600 14.98792597 46556,6948.763,96.077,572.594,568.662,0.0
55280.0,STARLINK-5331,PAYLOAD,2023-11-20 09:56:15,14.98664929,0.0002679,70.0007,2.972,262.5719,97.5136,-0.0043644,-0.00052232,0.0,0 STARLINK-5331,1 55280U 23010M   23324.41407360 -.00052232  00000-0 -43644-2 0  9994,2 55280  70.0007   2.9720 0002679 262.5719  97.5136 14.98664929 46607,6949.157,96.086,572.884,569.161,0.0
55280.0,STARLINK-5331,PAYLOAD,2023-11-20 13:08:28,14.98715302,0.0002609,70.0,2.6344,253.6995,106.3877,-0.0053683,-0.00064199,0.0,0 STARLINK-5331,1 55280U 23010M   23324.54755137 -.00064199  00000-0 -53683-2 0  9995,2 55280  70.0000   2.6344 0002609 253.6995 106.3877 14.98715302 46938,6949.002,96.082,572.68,569.054,0.0
55280.0,STARLINK-5331,PAYLOAD,2023-11-20 19:32:57,14.98632944,0.0002979,70.0002,1.9613,271.1664,88.9154,-0.0042416,-0.00050735,0.0,0 STARLINK-5331,1 55280U 23010M   23324.81455913 -.00050735  00000-0 -42416-2 0  9997,2 55280  70.0002   1.9613 0002979 271.1664  88.9154 14.98632944 46662,6949.256,96.088,573.191,569.051,0.0
55280.0,STARLINK-5331,PAYLOAD,2023-11-21 09:58:02,14.98585135,0.0002877,70.0001,0.4461,267.105,92.978,-0.0038885,-0.00046489,0.0,0 STARLINK-5331,1 55280U 23010M   23325.41531004 -.00046489  00000-0 -38885-2 0  9996,2 55280  70.0001   0.4461 0002877 267.1050  92.9780 14.98585135 46756,6949.404,96.091,573.268,569.27,0.0
55280.0,STARLINK-5331,PAYLOAD,2023-11-21 11:34:10,14.98580478,0.0002894,70.0,0.2777,267.6932,92.3896,-0.0038403,-0.00045912,0.0,0 STARLINK-5331,1 55280U 23010M   23325.48206132 -.00045912  00000-0 -38403-2 0  9990,2 55280  70.0000   0.2777 0002894 267.6932  92.3896 14.98580478 47079,6949.418,96.091,573.295,569.272,0.0
55280.0,STARLINK-5331,PAYLOAD,2023-11-21 21:10:55,14.98531129,0.0002991,70.0002,359.2663,278.6756,81.4064,-0.0032255,-0.00038568,0.0,0 STARLINK-5331,1 55280U 23010M   23325.88258804 -.00038568  00000-0 -32255-2 0  9995,2 55280  70.0002 359.2663 0002991 278.6756  81.4064 14.98531129 47138,6949.571,96.094,573.515,569.357,0.0
55280.0,STARLINK-5331,PAYLOAD,2023-11-22 03:35:30,14.98330215,0.0003002,69.9995,358.5941,269.264,90.8175,-4.971e-06,-1.52e-06,0.0,0 STARLINK-5331,1 55280U 23010M   23326.14966193 -.00000152  00000-0 -49710-5 0  9997,2 55280  69.9995 358.5941 0003002 269.2640  90.8175 14.98330215 46868,6950.192,96.107,574.144,569.971,0.0
55280.0,STARLINK-5331,PAYLOAD,2023-11-22 14:00:01,14.98317488,0.0003197,70.0019,357.5008,274.8022,263.922,0.00012372,1.383e-05,0.0,0 STARLINK-5331,1 55280U 23010M   23326.58334491  .00001383  00000-0  12372-3 0  9992,2 55280  70.0019 357.5008 0003197 274.8022 263.9220 14.98317488  5790,6950.232,96.108,574.319,569.875,0.0
55280.0,STARLINK-5331,PAYLOAD,2023-11-23 00:00:00,14.98296577,0.0003196,70.0019,356.4504,267.9591,357.611,0.0060717,0.00073051,0.0,0 STARLINK-5331,1 55280U 23010M   23327.00001157  .00073051  00000-0  60717-2 0  9996,2 55280  70.0019 356.4504 0003196 267.9591 357.6110 14.98296577  5808,6950.296,96.109,574.383,569.94,0.0
55280.0,STARLINK-5331,PAYLOAD,2023-11-23 03:37:31,14.98332022,0.0002648,70.0007,356.0697,258.718,101.3682,-3.0525e-05,-4.57e-06,0.0,0 STARLINK-5331,1 55280U 23010M   23327.15105995 -.00000457  00000-0 -30525-4 0  9995,2 55280  70.0007 356.0697 0002648 258.7180 101.3682 14.98332022 47010,6950.187,96.107,573.892,570.211,0.0
55280.0,STARLINK-5331,PAYLOAD,2023-11-23 11:38:12,14.9832918,0.0002749,70.0006,355.2288,258.3802,101.7049,-4.3321e-05,-6.1e-06,0.0,0 STARLINK-5331,1 55280U 23010M   23327.48486178 -.00000610  00000-0 -43321-4 0  9995,2 55280  70.0006 355.2288 0002749 258.3802 101.7049 14.98329180 47376,6950.195,96.107,573.971,570.15,0.0
55280.0,STARLINK-5331,PAYLOAD,2023-11-24 03:39:33,14.98321026,0.0002946,70.001,353.5459,253.55,106.5336,2.936e-06,-5.8e-07,0.0,0 STARLINK-5331,1 55280U 23010M   23328.15246610 -.00000058  00000-0  29360-5 0  9998,2 55280  70.0010 353.5459 0002946 253.5500 106.5336 14.98321026 47163,6950.221,96.108,574.133,570.038,0.0
55280.0,STARLINK-5331,PAYLOAD,2023-11-24 11:40:13,14.98321612,0.0002548,70.0008,352.7035,255.7664,104.3212,-4.8535e-05,-6.72e-06,0.0,0 STARLINK-5331,1 55280U 23010M   23328.48626969 -.00000672  00000-0 -48535-4 0  9990,2 55280  70.0008 352.7035 0002548 255.7664 104.3212 14.98321612 47524,6950.219,96.108,573.855,570.313,0.0
55280.0,STARLINK-5331,PAYLOAD,2023-11-25 03:41:33,14.98330854,0.0003045,69.9998,351.0198,266.7562,93.3249,6.0654e-05,6.31e-06,0.0,0 STARLINK-5331,1 55280U 23010M   23329.15386120  .00000631  00000-0  60654-4 0  9996,2 55280  69.9998 351.0198 0003045 266.7562  93.3249 14.98330854 47315,6950.19,96.107,574.172,569.939,0.0
55280.0,STARLINK-5331,PAYLOAD,2023-11-25 11:42:13,14.98336479,0.0002904,70.0,350.1786,264.1316,95.9512,0.00012219,1.365e-05,0.0,0 STARLINK-5331,1 55280U 23010M   23329.48765564  .00001365  00000-0  12219-3 0  9993,2 55280  70.0000 350.1786 0002904 264.1316  95.9512 14.98336479 47676,6950.173,96.107,574.056,570.02,0.0
55280.0,STARLINK-5331,PAYLOAD,2023-11-26 11:44:14,14.98331646,0.0002009,70.0018,347.6543,260.508,99.5852,0.00016473,1.873e-05,0.0,0 STARLINK-5331,1 55280U 23010M   23330.48905785  .00001873  00000-0  16473-3 0  9996,2 55280  70.0018 347.6543 0002009 260.5080  99.5852 14.98331646 47512,6950.188,96.107,573.449,570.657,0.0
